start=new Date('2022-09-12T00:00:00.000Z').valueOf();
sats=[{"OBJECT_NAME":"STARLINK-1130","ELEMENT_SET_NO":"999","DECAY_DATE":null,"MEAN_ANOMALY":"275.4685","MEAN_MOTION":"15.06398451","INCLINATION":"53.0559","MEAN_MOTION_DOT":"-0.00000729","BSTAR":"-0.00003006100000","ARG_OF_PERICENTER":"84.6447","CLASSIFICATION_TYPE":"U","MEAN_ELEMENT_THEORY":"SGP4","FILE":"3569361","NORAD_CAT_ID":"44932","PERIOD":"95.592","RCS_SIZE":"LARGE","CENTER_NAME":"EARTH","GP_ID":"212353051","ECCENTRICITY":"0.00012510","REF_FRAME":"TEME","TLE_LINE1":"1 44932U 20001U   22254.52475942 -.00000729  00000-0 -30061-4 0  9992","TLE_LINE2":"2 44932  53.0559 311.0581 0001251  84.6447 275.4685 15.06398451148880","SEMIMAJOR_AXIS":"6925.353","PERIAPSIS":"546.352","MEAN_MOTION_DDOT":"0.0000000000000","EPOCH":"2022-09-11T12:35:39.213888","TIME_SYSTEM":"UTC","OBJECT_TYPE":"PAYLOAD","REV_AT_EPOCH":"14888","EPHEMERIS_TYPE":"0","COUNTRY_CODE":"US","APOAPSIS":"548.085","SITE":"AFETR","LAUNCH_DATE":"2020-01-07","RA_OF_ASC_NODE":"311.0581","OBJECT_ID":"2020-001U"},{"TIME_SYSTEM":"UTC","TLE_LINE2":"2 44933  53.0540 311.2515 0001421  72.6777 287.4368 15.06393875148934","TLE_LINE1":"1 44933U 20001V   22254.48421569  .00000580  00000-0  57864-4 0  9997","MEAN_MOTION_DDOT":"0.0000000000000","PERIAPSIS":"546.248","SEMIMAJOR_AXIS":"6925.367","EPOCH":"2022-09-11T11:37:16.235616","EPHEMERIS_TYPE":"0","OBJECT_TYPE":"PAYLOAD","REV_AT_EPOCH":"14893","SITE":"AFETR","LAUNCH_DATE":"2020-01-07","COUNTRY_CODE":"US","APOAPSIS":"548.216","OBJECT_ID":"2020-001V","RA_OF_ASC_NODE":"311.2515","DECAY_DATE":null,"ELEMENT_SET_NO":"999","OBJECT_NAME":"STARLINK-1144","MEAN_MOTION":"15.06393875","INCLINATION":"53.0540","MEAN_MOTION_DOT":"0.00000580","MEAN_ANOMALY":"287.4368","MEAN_ELEMENT_THEORY":"SGP4","FILE":"3568903","NORAD_CAT_ID":"44933","BSTAR":"0.00005786400000","ARG_OF_PERICENTER":"72.6777","CLASSIFICATION_TYPE":"U","REF_FRAME":"TEME","GP_ID":"212318348","ECCENTRICITY":"0.00014210","RCS_SIZE":"LARGE","PERIOD":"95.593","CENTER_NAME":"EARTH"},{"RA_OF_ASC_NODE":"291.4933","OBJECT_ID":"2020-001W","APOAPSIS":"548.090","COUNTRY_CODE":"US","LAUNCH_DATE":"2020-01-07","SITE":"AFETR","REV_AT_EPOCH":"14791","OBJECT_TYPE":"PAYLOAD","EPHEMERIS_TYPE":"0","PERIAPSIS":"546.413","SEMIMAJOR_AXIS":"6925.386","MEAN_MOTION_DDOT":"0.0000000000000","EPOCH":"2022-09-11T10:20:18.949632","TLE_LINE2":"2 44934  53.0532 291.4933 0001211  89.0096 271.1031 15.06387701147917","TLE_LINE1":"1 44934U 20001W   22254.43077488 -.00004260  00000-0 -26739-3 0  9997","TIME_SYSTEM":"UTC","RCS_SIZE":"LARGE","PERIOD":"95.593","CENTER_NAME":"EARTH","REF_FRAME":"TEME","GP_ID":"212319099","ECCENTRICITY":"0.00012110","ARG_OF_PERICENTER":"89.0096","BSTAR":"-0.00026739000000","CLASSIFICATION_TYPE":"U","FILE":"3568903","NORAD_CAT_ID":"44934","MEAN_ELEMENT_THEORY":"SGP4","MEAN_ANOMALY":"271.1031","MEAN_MOTION_DOT":"-0.00004260","MEAN_MOTION":"15.06387701","INCLINATION":"53.0532","OBJECT_NAME":"STARLINK-1071","ELEMENT_SET_NO":"999","DECAY_DATE":null},{"RA_OF_ASC_NODE":"291.5879","OBJECT_ID":"2020-001Z","COUNTRY_CODE":"US","APOAPSIS":"548.111","SITE":"AFETR","LAUNCH_DATE":"2020-01-07","OBJECT_TYPE":"PAYLOAD","REV_AT_EPOCH":"14791","EPHEMERIS_TYPE":"0","TLE_LINE1":"1 44937U 20001Z   22254.40865559  .00001860  00000-0  14370-3 0  9990","TLE_LINE2":"2 44937  53.0552 291.5879 0001357  88.4743 271.6401 15.06413910147913","PERIAPSIS":"546.231","SEMIMAJOR_AXIS":"6925.306","EPOCH":"2022-09-11T09:48:27.842976","MEAN_MOTION_DDOT":"0.0000000000000","TIME_SYSTEM":"UTC","RCS_SIZE":"LARGE","PERIOD":"95.591","CENTER_NAME":"EARTH","ECCENTRICITY":"0.00013570","GP_ID":"212317848","REF_FRAME":"TEME","CLASSIFICATION_TYPE":"U","BSTAR":"0.00014370000000","ARG_OF_PERICENTER":"88.4743","MEAN_ELEMENT_THEORY":"SGP4","NORAD_CAT_ID":"44937","FILE":"3568903","MEAN_ANOMALY":"271.6401","INCLINATION":"53.0552","MEAN_MOTION":"15.06413910","MEAN_MOTION_DOT":"0.00001860","OBJECT_NAME":"STARLINK-1079","ELEMENT_SET_NO":"999","DECAY_DATE":null},{"EPHEMERIS_TYPE":"0","REV_AT_EPOCH":"14790","OBJECT_TYPE":"PAYLOAD","TIME_SYSTEM":"UTC","PERIAPSIS":"546.233","SEMIMAJOR_AXIS":"6925.350","MEAN_MOTION_DDOT":"0.0000000000000","EPOCH":"2022-09-11T09:00:41.879808","TLE_LINE2":"2 44938  53.0529 291.7370 0001419  67.7954 292.3186 15.06399395147908","TLE_LINE1":"1 44938U 20001AA  22254.37548472 -.00001827  00000-0 -10381-3 0  9992","OBJECT_ID":"2020-001AA","RA_OF_ASC_NODE":"291.7370","LAUNCH_DATE":"2020-01-07","SITE":"AFETR","APOAPSIS":"548.198","COUNTRY_CODE":"US","MEAN_MOTION_DOT":"-0.00001827","INCLINATION":"53.0529","MEAN_MOTION":"15.06399395","MEAN_ANOMALY":"292.3186","ELEMENT_SET_NO":"999","DECAY_DATE":null,"OBJECT_NAME":"STARLINK-1082","GP_ID":"212318097","ECCENTRICITY":"0.00014190","REF_FRAME":"TEME","PERIOD":"95.592","RCS_SIZE":"LARGE","CENTER_NAME":"EARTH","NORAD_CAT_ID":"44938","FILE":"3568903","MEAN_ELEMENT_THEORY":"SGP4","BSTAR":"-0.00010381000000","ARG_OF_PERICENTER":"67.7954","CLASSIFICATION_TYPE":"U"},{"PERIOD":"95.592","RCS_SIZE":"LARGE","CENTER_NAME":"EARTH","REF_FRAME":"TEME","GP_ID":"212353301","ECCENTRICITY":"0.00012740","CLASSIFICATION_TYPE":"U","BSTAR":"0.00002489800000","ARG_OF_PERICENTER":"80.6892","MEAN_ELEMENT_THEORY":"SGP4","NORAD_CAT_ID":"44939","FILE":"3569361","MEAN_ANOMALY":"279.4241","INCLINATION":"53.0550","MEAN_MOTION":"15.06394930","MEAN_MOTION_DOT":"0.00000089","OBJECT_NAME":"STARLINK-1083","DECAY_DATE":null,"ELEMENT_SET_NO":"999","RA_OF_ASC_NODE":"290.8018","OBJECT_ID":"2020-001AB","COUNTRY_CODE":"US","APOAPSIS":"548.111","SITE":"AFETR","LAUNCH_DATE":"2020-01-07","OBJECT_TYPE":"PAYLOAD","REV_AT_EPOCH":"14793","EPHEMERIS_TYPE":"0","TLE_LINE2":"2 44939  53.0550 290.8018 0001274  80.6892 279.4241 15.06394930147937","TLE_LINE1":"1 44939U 20001AB  22254.58189552  .00000089  00000-0  24898-4 0  9992","SEMIMAJOR_AXIS":"6925.364","PERIAPSIS":"546.347","MEAN_MOTION_DDOT":"0.0000000000000","EPOCH":"2022-09-11T13:57:55.772928","TIME_SYSTEM":"UTC"},{"OBJECT_ID":"2020-001AC","RA_OF_ASC_NODE":"290.7591","LAUNCH_DATE":"2020-01-07","SITE":"AFETR","APOAPSIS":"548.248","COUNTRY_CODE":"US","EPHEMERIS_TYPE":"0","REV_AT_EPOCH":"14793","OBJECT_TYPE":"PAYLOAD","TIME_SYSTEM":"UTC","PERIAPSIS":"546.151","SEMIMAJOR_AXIS":"6925.335","MEAN_MOTION_DDOT":"0.0000000000000","EPOCH":"2022-09-11T14:13:50.395296","TLE_LINE1":"1 44940U 20001AC  22254.59294439  .00000002  00000-0  19040-4 0  9994","TLE_LINE2":"2 44940  53.0540 290.7591 0001514  72.3974 287.7180 15.06404488147933","GP_ID":"212354552","ECCENTRICITY":"0.00015140","REF_FRAME":"TEME","PERIOD":"95.592","RCS_SIZE":"LARGE","CENTER_NAME":"EARTH","FILE":"3569361","NORAD_CAT_ID":"44940","MEAN_ELEMENT_THEORY":"SGP4","BSTAR":"0.00001904000000","CLASSIFICATION_TYPE":"U","ARG_OF_PERICENTER":"72.3974","MEAN_MOTION_DOT":"0.00000002","MEAN_MOTION":"15.06404488","INCLINATION":"53.0540","MEAN_ANOMALY":"287.7180","ELEMENT_SET_NO":"999","DECAY_DATE":null,"OBJECT_NAME":"STARLINK-1091"},{"TIME_SYSTEM":"UTC","TLE_LINE1":"1 44941U 20001AD  22254.61507613  .00000630  00000-0  61216-4 0  9998","TLE_LINE2":"2 44941  53.0526 290.6632 0001348  77.9449 282.1691 15.06387762147948","PERIAPSIS":"546.318","SEMIMAJOR_AXIS":"6925.386","EPOCH":"2022-09-11T14:45:42.577632","MEAN_MOTION_DDOT":"0.0000000000000","EPHEMERIS_TYPE":"0","OBJECT_TYPE":"PAYLOAD","REV_AT_EPOCH":"14794","SITE":"AFETR","LAUNCH_DATE":"2020-01-07","COUNTRY_CODE":"US","APOAPSIS":"548.185","OBJECT_ID":"2020-001AD","RA_OF_ASC_NODE":"290.6632","DECAY_DATE":null,"ELEMENT_SET_NO":"999","OBJECT_NAME":"STARLINK-1094","MEAN_MOTION":"15.06387762","INCLINATION":"53.0526","MEAN_MOTION_DOT":"0.00000630","MEAN_ANOMALY":"282.1691","MEAN_ELEMENT_THEORY":"SGP4","FILE":"3569361","NORAD_CAT_ID":"44941","ARG_OF_PERICENTER":"77.9449","BSTAR":"0.00006121600000","CLASSIFICATION_TYPE":"U","ECCENTRICITY":"0.00013480","GP_ID":"212354301","REF_FRAME":"TEME","PERIOD":"95.593","RCS_SIZE":"LARGE","CENTER_NAME":"EARTH"},{"RCS_SIZE":"LARGE","PERIOD":"95.407","CENTER_NAME":"EARTH","ECCENTRICITY":"0.00013490","GP_ID":"212331668","REF_FRAME":"TEME","ARG_OF_PERICENTER":"87.8051","BSTAR":"0.00061330000000","CLASSIFICATION_TYPE":"U","MEAN_ELEMENT_THEORY":"SGP4","NORAD_CAT_ID":"44942","FILE":"3569202","MEAN_ANOMALY":"272.3093","INCLINATION":"53.0541","MEAN_MOTION":"15.09315542","MEAN_MOTION_DOT":"0.00009614","OBJECT_NAME":"STARLINK-1096","DECAY_DATE":null,"ELEMENT_SET_NO":"999","RA_OF_ASC_NODE":"290.2566","OBJECT_ID":"2020-001AE","COUNTRY_CODE":"US","APOAPSIS":"539.225","SITE":"AFETR","LAUNCH_DATE":"2020-01-07","OBJECT_TYPE":"PAYLOAD","REV_AT_EPOCH":"14793","EPHEMERIS_TYPE":"0","TLE_LINE2":"2 44942  53.0541 290.2566 0001349  87.8051 272.3093 15.09315542147934","TLE_LINE1":"1 44942U 20001AE  22254.40751806  .00009614  00000-0  61330-3 0  9998","PERIAPSIS":"537.359","SEMIMAJOR_AXIS":"6916.427","EPOCH":"2022-09-11T09:46:49.560384","MEAN_MOTION_DDOT":"0.0000000000000","TIME_SYSTEM":"UTC"},{"OBJECT_NAME":"STARLINK-1100","ELEMENT_SET_NO":"999","DECAY_DATE":null,"MEAN_ANOMALY":"274.0401","MEAN_MOTION_DOT":"0.00000119","MEAN_MOTION":"15.06407375","INCLINATION":"53.0555","CLASSIFICATION_TYPE":"U","BSTAR":"0.00002688900000","ARG_OF_PERICENTER":"86.0743","FILE":"3568903","NORAD_CAT_ID":"44943","MEAN_ELEMENT_THEORY":"SGP4","PERIOD":"95.592","RCS_SIZE":"LARGE","CENTER_NAME":"EARTH","REF_FRAME":"TEME","GP_ID":"212318349","ECCENTRICITY":"0.00013550","PERIAPSIS":"546.253","MEAN_MOTION_DDOT":"0.0000000000000","SEMIMAJOR_AXIS":"6925.326","EPOCH":"2022-09-11T09:05:59.885376","TLE_LINE1":"1 44943U 20001AF  22254.37916534  .00000119  00000-0  26889-4 0  9998","TLE_LINE2":"2 44943  53.0555 291.7215 0001355  86.0743 274.0401 15.06407375147905","TIME_SYSTEM":"UTC","REV_AT_EPOCH":"14790","OBJECT_TYPE":"PAYLOAD","EPHEMERIS_TYPE":"0","APOAPSIS":"548.129","COUNTRY_CODE":"US","LAUNCH_DATE":"2020-01-07","SITE":"AFETR","RA_OF_ASC_NODE":"291.7215","OBJECT_ID":"2020-001AF"}];
